IRIDIUM 117             
1 42808U 17039F   26180.54207097  .00000001  00000+0 -65834-5 0  9995
2 42808  86.3974 348.4273 0001983  90.2526 269.8897 14.34217262471741
IRIDIUM 126             
1 42809U 17039G   26180.49767296  .00000024  00000+0  15847-5 0  9995
2 42809  86.3976 348.4969 0002138  87.7488 272.3952 14.34217427471718
IRIDIUM 124             
1 42810U 17039H   26180.32394821  .00000317  00000+0  88283-4 0  9997
2 42810  86.4488 285.2840 0002208  95.1192 265.0261 14.43281179476866
IRIDIUM 128             
1 42811U 17039J   26180.55818014  .00000054  00000+0  12141-4 0  9996
2 42811  86.3963  19.9770 0002115  91.8900 268.2538 14.34217333471751
IRIDIUM 121             
1 42812U 17039K   26180.51670056  .00000022  00000+0  65713-6 0  9995
2 42812  86.3976 348.5167 0002214  92.7989 267.3460 14.34217726471596
IRIDIUM 133             
1 42955U 17061A   26180.52012397 -.00000001  00000+0 -75300-5 0  9998
2 42955  86.3960  20.1107 0002028  89.2103 270.9325 14.34217456456544
IRIDIUM 100             
1 42956U 17061B   26180.51378146  .00000038  00000+0  66447-5 0  9995
2 42956  86.3961  20.0318 0002181  88.7608 271.3838 14.34217668456542
IRIDIUM 122             
1 42957U 17061C   26180.55183662  .00000046  00000+0  94860-5 0  9996
2 42957  86.3962  20.0163 0002139  86.9765 273.1676 14.34217749456550
IRIDIUM 129             
1 42958U 17061D   26180.50743911  .00000079  00000+0  21127-4 0  9992
2 42958  86.3961  20.1019 0002304  83.1404 277.0053 14.34217709456563
IRIDIUM 119             
1 42959U 17061E   26180.54549265  .00000035  00000+0  53147-5 0  9993
2 42959  86.3962  20.0819 0002127  85.7568 274.3871 14.34216744456582
IRIDIUM 107             
1 42960U 17061F   26180.56451878  .00000222  00000+0  72066-4 0  9997
2 42960  86.3963  20.0953 0001949  90.1006 270.0413 14.34216182456594
IRIDIUM 132             
1 42961U 17061G   26180.50109632  .00000044  00000+0  86123-5 0  9992
2 42961  86.3961  20.1011 0002127  87.1133 273.0306 14.34217727456584
IRIDIUM 136             
1 42962U 17061H   26180.53280975  .00000196  00000+0  62777-4 0  9992
2 42962  86.3966  20.0947 0002249  91.1461 268.9993 14.34219155456606
IRIDIUM 139             
1 42963U 17061J   26180.53915141  .00000009  00000+0 -39820-5 0  9991
2 42963  86.3962  20.1540 0002041  90.9518 269.1912 14.34217541456615
IRIDIUM 125             
1 42964U 17061K   26180.52648226  .00000225  00000+0  73281-4 0  9995
2 42964  86.3965  20.2208 0001829  76.4988 283.6411 14.34218960456626
